[{"OBJECT_NAME":"STARLINK-5875","OBJECT_ID":"2023-094D","EPOCH":"2026-03-09T06:34:47.217504","MEAN_MOTION":15.02533884,"ECCENTRICITY":0.00014002,"INCLINATION":43.0057,"RA_OF_ASC_NODE":32.9178,"ARG_OF_PERICENTER":270.3895,"MEAN_ANOMALY":89.6787,"EPHEMERIS_TYPE":0,"CLASSIFICATION_TYPE":"U","NORAD_CAT_ID":57221,"ELEMENT_SET_NO":999,"REV_AT_EPOCH":14705,"BSTAR":3.6773469e-5,"MEAN_MOTION_DOT":2.93e-6,"MEAN_MOTION_DDOT":0},{"OBJECT_NAME":"COSMOS 2251 DEB","OBJECT_ID":"1993-036GR","EPOCH":"2026-03-09T03:51:30.155616","MEAN_MOTION":15.03624382,"ECCENTRICITY":0.001162,"INCLINATION":74.0519,"RA_OF_ASC_NODE":328.1155,"ARG_OF_PERICENTER":228.8449,"MEAN_ANOMALY":281.5146,"EPHEMERIS_TYPE":0,"CLASSIFICATION_TYPE":"U","NORAD_CAT_ID":34006,"ELEMENT_SET_NO":999,"REV_AT_EPOCH":89963,"BSTAR":0.0037151817,"MEAN_MOTION_DOT":0.00051242,"MEAN_MOTION_DDOT":0}]
